0 FENGYUN 1C DEB
1 33621U 99025DDE 13283.63570060  .00001443  00000-0  52744-3 0  2455
2 33621 098.1657 077.9006 0319719 196.9992 162.0752 14.08285748301551
0 FENGYUN 1C DEB
1 33621U 99025DDE 13287.68566906  .00002048  00000-0  76098-3 0  2458
2 33621 098.1684 081.5927 0320807 185.1786 175.1553 14.08308403302127
0 FENGYUN 1C DEB
1 33621U 99025DDE 13288.68026027  .00001605  00000-0  60205-3 0  2466
2 33621 098.1676 082.4928 0319450 181.6884 178.2488 14.08306416302269
0 FENGYUN 1C DEB
1 33621U 99025DDE 13291.23807373  .00001612  00000-0  60574-3 0  2470
2 33621 098.1649 084.8088 0318748 174.4433 186.0416 14.08315126302627
0 FENGYUN 1C DEB
1 33621U 99025DDE 13291.66437196  .00001662  00000-0  62576-3 0  2489
2 33621 098.1642 085.2022 0317747 173.0830 187.5062 14.08318032302685
0 FENGYUN 1C DEB
1 33621U 99025DDE 13294.22214206  .00001729  00000-0  65003-3 0  2492
2 33621 098.1673 087.5316 0317697 165.5076 195.5755 14.08328887303040
0 FENGYUN 1C DEB
1 33621U 99025DDE 13295.21682045  .00001790  00000-0  66850-3 0  2503
2 33621 098.1676 088.4410 0319653 162.7881 198.5066 14.08334407303183
0 FENGYUN 1C DEB
1 33621U 99025DDE 13295.64309968  .00001887  00000-0  71032-3 0  2516
2 33621 098.1609 088.8029 0316444 162.6567 198.6953 14.08339653303245
